GLOBALSTAR M023         
1 25621U 99004A   24220.54373557 -.00000114  00000+0 -57036-4 0  9999
2 25621  52.0110 288.4740 0010490 154.3134 345.9336 12.62463691176114
GLOBALSTAR M040         
1 25622U 99004B   24220.55482410 -.00000049  00000+0  30881-3 0  9994
2 25622  51.9918 292.1287 0001093  92.5821  46.4296 12.61978424175652
GLOBALSTAR M036         
1 25623U 99004C   24220.68897484  .00000000  00000+0  12097-2 0  9994
2 25623  51.9997 346.6182 0011456 165.5848 301.0478 11.86573647141764
GLOBALSTAR M038         
1 25624U 99004D   24220.59418346 -.00000065  00000+0  24840-3 0  9993
2 25624  51.9953 254.6704 0002015 125.1122  14.2921 12.32504557163703
GLOBALSTAR M022         
1 25649U 99012A   24220.87764000 -.00000050  00000+0  44059-3 0  9999
2 25649  52.0045  62.6106 0001643 275.0615 187.2579 12.02485876138683
GLOBALSTAR M041         
1 25650U 99012B   24220.57202938 -.00000019  00000+0  86134-3 0  9990
2 25650  52.0026 295.3336 0002854  74.5369 285.5783 11.96658144140737
GLOBALSTAR M046         
1 25651U 99012C   24220.79044400  .00000026  00000+0  12620-2 0  9998
2 25651  52.0070  24.4214 0002164  10.1973  96.3080 12.09395397145741
GLOBALSTAR M037         
1 25652U 99012D   24220.81951316 -.00000105  00000+0 -56412-5 0  9995
2 25652  52.0008  58.3650 0001402 187.0247 289.0783 12.62413354171692
